ONEWEB-0238             
1 48784U 21045T   25299.96994248 -.00000112  00000+0 -33213-3 0  9991
2 48784  87.8960 305.7133 0002051  84.3198 275.8166 13.15546282213710
ONEWEB-0240             
1 48785U 21045U   25299.76303733  .00000069  00000+0  15048-3 0  9998
2 48785  87.8966 305.7427 0002208  96.5272 263.6109 13.15546694213714
ONEWEB-0246             
1 48786U 21045V   25299.75749127 -.00000082  00000+0 -25288-3 0  9993
2 48786  87.8969 305.7571 0001774  97.0314 263.1018 13.15547541213589
ONEWEB-0210             
1 48787U 21045W   25299.96030944 -.00000085  00000+0 -26064-3 0  9993
2 48787  87.8970 305.7159 0001798 113.7995 246.3324 13.15548648213651
ONEWEB-0214             
1 48788U 21045X   25299.96902690 -.00000073  00000+0 -22673-3 0  9999
2 48788  87.8966 305.7009 0001601 104.8897 255.2411 13.15547399213621
ONEWEB-0221             
1 48789U 21045Y   25299.97615537 -.00000044  00000+0 -15135-3 0  9995
2 48789  87.8961 305.7216 0001944  98.9461 261.1889 13.15549078213718
ONEWEB-0213             
1 48790U 21045Z   25299.81295007 -.00000112  00000+0 -33258-3 0  9998
2 48790  87.8962 305.7636 0001892 100.2992 259.8351 13.15547870213755
ONEWEB-0212             
1 48791U 21045AA  25299.94208242  .00000060  00000+0  12638-3 0  9997
2 48791  87.8971 305.7236 0001907  90.7201 269.4148 13.15547020213764
ONEWEB-0227             
1 48792U 21045AB  25299.94129245  .00000085  00000+0  19149-3 0  9994
2 48792  87.8960 305.7389 0001941  95.5854 264.5497 13.15549363213717
ONEWEB-0226             
1 48793U 21045AC  25299.93496191  .00000135  00000+0  32572-3 0  9992
2 48793  87.8961 305.7482 0001813 103.5692 256.5640 13.15549120213689
ONEWEB-0224             
1 48794U 21045AD  25299.97455720 -.00000057  00000+0 -18479-3 0  9995
2 48794  87.8958 305.7749 0002820  92.8029 267.3424 13.15550125213615
ONEWEB-0233             
1 48795U 21045AE  25299.97918227 -.00000034  00000+0 -12371-3 0  9992
2 48795  87.8960 305.7853 0002107  98.9035 261.2334 13.15548906213636
ONEWEB-0190             
1 48796U 21045AF  25299.81452937 -.00000030  00000+0 -11269-3 0  9998
2 48796  87.8960 305.7802 0002185 112.7579 247.3783 13.15548803213689
ONEWEB-0236             
1 48797U 21045AG  25299.75590416 -.00000006  00000+0 -50320-4 0  9992
2 48797  87.8959 305.8032 0001912  88.1761 271.9589 13.15548012213566
ONEWEB-0248             
1 48798U 21045AH  25299.76856965  .00000054  00000+0  11028-3 0  9990
2 48798  87.8968 305.7596 0002408 100.6347 259.5055 13.15546364213728
ONEWEB-0225             
1 48799U 21045AJ  25299.94288300  .00000078  00000+0  17356-3 0  9999
2 48799  87.8963 305.7528 0002129 108.5088 251.6274 13.15548317213757
