[{"OBJECT_NAME":"ONEWEB-0238","OBJECT_ID":"2021-045T","EPOCH":"2025-10-26T23:16:43.030272","MEAN_MOTION":13.15546282,"ECCENTRICITY":0.00020512,"INCLINATION":87.896,"RA_OF_ASC_NODE":305.7133,"ARG_OF_PERICENTER":84.3198,"MEAN_ANOMALY":275.8166,"EPHEMERIS_TYPE":0,"CLASSIFICATION_TYPE":"U","NORAD_CAT_ID":48784,"ELEMENT_SET_NO":999,"REV_AT_EPOCH":21371,"BSTAR":-0.00033213039,"MEAN_MOTION_DOT":-1.12e-6,"MEAN_MOTION_DDOT":0},{"OBJECT_NAME":"ONEWEB-0240","OBJECT_ID":"2021-045U","EPOCH":"2025-10-26T18:18:46.425312","MEAN_MOTION":13.15546694,"ECCENTRICITY":0.00022085,"INCLINATION":87.8966,"RA_OF_ASC_NODE":305.7427,"ARG_OF_PERICENTER":96.5272,"MEAN_ANOMALY":263.6109,"EPHEMERIS_TYPE":0,"CLASSIFICATION_TYPE":"U","NORAD_CAT_ID":48785,"ELEMENT_SET_NO":999,"REV_AT_EPOCH":21371,"BSTAR":0.00015047727,"MEAN_MOTION_DOT":6.9e-7,"MEAN_MOTION_DDOT":0},{"OBJECT_NAME":"ONEWEB-0246","OBJECT_ID":"2021-045V","EPOCH":"2025-10-26T18:10:47.245728","MEAN_MOTION":13.15547541,"ECCENTRICITY":0.00017742,"INCLINATION":87.8969,"RA_OF_ASC_NODE":305.7571,"ARG_OF_PERICENTER":97.0314,"MEAN_ANOMALY":263.1018,"EPHEMERIS_TYPE":0,"CLASSIFICATION_TYPE":"U","NORAD_CAT_ID":48786,"ELEMENT_SET_NO":999,"REV_AT_EPOCH":21358,"BSTAR":-0.00025287598,"MEAN_MOTION_DOT":-8.2e-7,"MEAN_MOTION_DDOT":0},{"OBJECT_NAME":"ONEWEB-0210","OBJECT_ID":"2021-045W","EPOCH":"2025-10-26T23:02:50.735616","MEAN_MOTION":13.15548648,"ECCENTRICITY":0.00017983,"INCLINATION":87.897,"RA_OF_ASC_NODE":305.7159,"ARG_OF_PERICENTER":113.7995,"MEAN_ANOMALY":246.3324,"EPHEMERIS_TYPE":0,"CLASSIFICATION_TYPE":"U","NORAD_CAT_ID":48787,"ELEMENT_SET_NO":999,"REV_AT_EPOCH":21365,"BSTAR":-0.0002606416,"MEAN_MOTION_DOT":-8.5e-7,"MEAN_MOTION_DDOT":0},{"OBJECT_NAME":"ONEWEB-0214","OBJECT_ID":"2021-045X","EPOCH":"2025-10-26T23:15:23.924160","MEAN_MOTION":13.15547399,"ECCENTRICITY":0.00016015,"INCLINATION":87.8966,"RA_OF_ASC_NODE":305.7009,"ARG_OF_PERICENTER":104.8897,"MEAN_ANOMALY":255.2411,"EPHEMERIS_TYPE":0,"CLASSIFICATION_TYPE":"U","NORAD_CAT_ID":48788,"ELEMENT_SET_NO":999,"REV_AT_EPOCH":21362,"BSTAR":-0.00022673114,"MEAN_MOTION_DOT":-7.3e-7,"MEAN_MOTION_DDOT":0},{"OBJECT_NAME":"ONEWEB-0221","OBJECT_ID":"2021-045Y","EPOCH":"2025-10-26T23:25:39.823968","MEAN_MOTION":13.15549078,"ECCENTRICITY":0.00019448,"INCLINATION":87.8961,"RA_OF_ASC_NODE":305.7216,"ARG_OF_PERICENTER":98.9461,"MEAN_ANOMALY":261.1889,"EPHEMERIS_TYPE":0,"CLASSIFICATION_TYPE":"U","NORAD_CAT_ID":48789,"ELEMENT_SET_NO":999,"REV_AT_EPOCH":21371,"BSTAR":-0.00015135348,"MEAN_MOTION_DOT":-4.4e-7,"MEAN_MOTION_DDOT":0},{"OBJECT_NAME":"ONEWEB-0213","OBJECT_ID":"2021-045Z","EPOCH":"2025-10-26T19:30:38.886048","MEAN_MOTION":13.1554787,"ECCENTRICITY":0.00018925,"INCLINATION":87.8962,"RA_OF_ASC_NODE":305.7636,"ARG_OF_PERICENTER":100.2992,"MEAN_ANOMALY":259.8351,"EPHEMERIS_TYPE":0,"CLASSIFICATION_TYPE":"U","NORAD_CAT_ID":48790,"ELEMENT_SET_NO":999,"REV_AT_EPOCH":21375,"BSTAR":-0.0003325845,"MEAN_MOTION_DOT":-1.12e-6,"MEAN_MOTION_DDOT":0},{"OBJECT_NAME":"ONEWEB-0212","OBJECT_ID":"2021-045AA","EPOCH":"2025-10-26T22:36:35.921088","MEAN_MOTION":13.1554702,"ECCENTRICITY":0.00019079,"INCLINATION":87.8971,"RA_OF_ASC_NODE":305.7236,"ARG_OF_PERICENTER":90.7201,"MEAN_ANOMALY":269.4148,"EPHEMERIS_TYPE":0,"CLASSIFICATION_TYPE":"U","NORAD_CAT_ID":48791,"ELEMENT_SET_NO":999,"REV_AT_EPOCH":21376,"BSTAR":0.00012638233,"MEAN_MOTION_DOT":6.0e-7,"MEAN_MOTION_DDOT":0},{"OBJECT_NAME":"ONEWEB-0227","OBJECT_ID":"2021-045AB","EPOCH":"2025-10-26T22:35:27.667680","MEAN_MOTION":13.15549363,"ECCENTRICITY":0.0001941,"INCLINATION":87.896,"RA_OF_ASC_NODE":305.7389,"ARG_OF_PERICENTER":95.5854,"MEAN_ANOMALY":264.5497,"EPHEMERIS_TYPE":0,"CLASSIFICATION_TYPE":"U","NORAD_CAT_ID":48792,"ELEMENT_SET_NO":999,"REV_AT_EPOCH":21371,"BSTAR":0.00019149371,"MEAN_MOTION_DOT":8.5e-7,"MEAN_MOTION_DDOT":0},{"OBJECT_NAME":"ONEWEB-0226","OBJECT_ID":"2021-045AC","EPOCH":"2025-10-26T22:26:20.709024","MEAN_MOTION":13.1554912,"ECCENTRICITY":0.0001813,"INCLINATION":87.8961,"RA_OF_ASC_NODE":305.7482,"ARG_OF_PERICENTER":103.5692,"MEAN_ANOMALY":256.564,"EPHEMERIS_TYPE":0,"CLASSIFICATION_TYPE":"U","NORAD_CAT_ID":48793,"ELEMENT_SET_NO":999,"REV_AT_EPOCH":21368,"BSTAR":0.00032571938,"MEAN_MOTION_DOT":1.35e-6,"MEAN_MOTION_DDOT":0},{"OBJECT_NAME":"ONEWEB-0224","OBJECT_ID":"2021-045AD","EPOCH":"2025-10-26T23:23:21.742080","MEAN_MOTION":13.15550125,"ECCENTRICITY":0.00028202,"INCLINATION":87.8958,"RA_OF_ASC_NODE":305.7749,"ARG_OF_PERICENTER":92.8029,"MEAN_ANOMALY":267.3424,"EPHEMERIS_TYPE":0,"CLASSIFICATION_TYPE":"U","NORAD_CAT_ID":48794,"ELEMENT_SET_NO":999,"REV_AT_EPOCH":21361,"BSTAR":-0.00018478902,"MEAN_MOTION_DOT":-5.7e-7,"MEAN_MOTION_DDOT":0},{"OBJECT_NAME":"ONEWEB-0233","OBJECT_ID":"2021-045AE","EPOCH":"2025-10-26T23:30:01.348128","MEAN_MOTION":13.15548906,"ECCENTRICITY":0.00021075,"INCLINATION":87.896,"RA_OF_ASC_NODE":305.7853,"ARG_OF_PERICENTER":98.9035,"MEAN_ANOMALY":261.2334,"EPHEMERIS_TYPE":0,"CLASSIFICATION_TYPE":"U","NORAD_CAT_ID":48795,"ELEMENT_SET_NO":999,"REV_AT_EPOCH":21363,"BSTAR":-0.00012370657,"MEAN_MOTION_DOT":-3.4e-7,"MEAN_MOTION_DDOT":0},{"OBJECT_NAME":"ONEWEB-0190","OBJECT_ID":"2021-045AF","EPOCH":"2025-10-26T19:32:55.337568","MEAN_MOTION":13.15548803,"ECCENTRICITY":0.00021859,"INCLINATION":87.896,"RA_OF_ASC_NODE":305.7802,"ARG_OF_PERICENTER":112.7579,"MEAN_ANOMALY":247.3783,"EPHEMERIS_TYPE":0,"CLASSIFICATION_TYPE":"U","NORAD_CAT_ID":48796,"ELEMENT_SET_NO":999,"REV_AT_EPOCH":21368,"BSTAR":-0.00011269492,"MEAN_MOTION_DOT":-3.0e-7,"MEAN_MOTION_DDOT":0},{"OBJECT_NAME":"ONEWEB-0236","OBJECT_ID":"2021-045AG","EPOCH":"2025-10-26T18:08:30.119424","MEAN_MOTION":13.15548012,"ECCENTRICITY":0.00019126,"INCLINATION":87.8959,"RA_OF_ASC_NODE":305.8032,"ARG_OF_PERICENTER":88.1761,"MEAN_ANOMALY":271.9589,"EPHEMERIS_TYPE":0,"CLASSIFICATION_TYPE":"U","NORAD_CAT_ID":48797,"ELEMENT_SET_NO":999,"REV_AT_EPOCH":21356,"BSTAR":-5.0319767e-5,"MEAN_MOTION_DOT":-6.0e-8,"MEAN_MOTION_DDOT":0},{"OBJECT_NAME":"ONEWEB-0248","OBJECT_ID":"2021-045AH","EPOCH":"2025-10-26T18:26:44.417760","MEAN_MOTION":13.15546364,"ECCENTRICITY":0.00024087,"INCLINATION":87.8968,"RA_OF_ASC_NODE":305.7596,"ARG_OF_PERICENTER":100.6347,"MEAN_ANOMALY":259.5055,"EPHEMERIS_TYPE":0,"CLASSIFICATION_TYPE":"U","NORAD_CAT_ID":48798,"ELEMENT_SET_NO":999,"REV_AT_EPOCH":21372,"BSTAR":0.00011027993,"MEAN_MOTION_DOT":5.4e-7,"MEAN_MOTION_DDOT":0},{"OBJECT_NAME":"ONEWEB-0225","OBJECT_ID":"2021-045AJ","EPOCH":"2025-10-26T22:37:45.091200","MEAN_MOTION":13.15548317,"ECCENTRICITY":0.00021293,"INCLINATION":87.8963,"RA_OF_ASC_NODE":305.7528,"ARG_OF_PERICENTER":108.5088,"MEAN_ANOMALY":251.6274,"EPHEMERIS_TYPE":0,"CLASSIFICATION_TYPE":"U","NORAD_CAT_ID":48799,"ELEMENT_SET_NO":999,"REV_AT_EPOCH":21375,"BSTAR":0.00017355522,"MEAN_MOTION_DOT":7.8e-7,"MEAN_MOTION_DDOT":0}]
